{
  "type": "FeatureCollection",
  "features": [
    {
      "type": "Feature",
      "properties": {
        "norad_id": 36048,
        "name": "COSMOS 2251 DEB",
        "group": "cosmos-2251-debris",
        "lat": -54.98875258507313,
        "lon": -93.46717442520595,
        "alt_km": 757.152208422277,
        "timestamp": "2025-12-17T10:52:54.749395+00:00",
        "meta_object_name": "COSMOS 2251 DEB",
        "meta_object_id": "1993-036AXK",
        "meta_epoch": "2025-12-16T14:16:03.044352",
        "meta_mean_motion": 14.37859124,
        "meta_eccentricity": 0.00267775,
        "meta_inclination": 74.057,
        "meta_ra_of_asc_node": 292.1955,
        "meta_arg_of_pericenter": 341.4062,
        "meta_mean_anomaly": 196.1443,
        "meta_ephemeris_type": 0,
        "meta_classification_type": "U",
        "meta_norad_cat_id": 36048,
        "meta_element_set_no": 999,
        "meta_rev_at_epoch": 85557,
        "meta_bstar": 0.00026609336,
        "meta_mean_motion_dot": 7.8e-06,
        "meta_mean_motion_ddot": 0,
        "tle_line1": "1 36048U 93036AXK 25350.59447968  .00000780  00000+0  26609-3 0  9999",
        "tle_line2": "2 36048  74.0570 292.1955 0026777 341.4062 196.1443 14.37859124855570"
      },
      "geometry": {
        "type": "Point",
        "coordinates": [
          -93.46717442520595,
          -54.98875258507313
        ]
      }
    },
    {
      "type": "Feature",
      "properties": {
        "norad_id": 36049,
        "name": "COSMOS 2251 DEB",
        "group": "cosmos-2251-debris",
        "lat": 71.13433906995508,
        "lon": -126.78247612105908,
        "alt_km": 679.6210471051045,
        "timestamp": "2025-12-17T10:52:54.749405+00:00",
        "meta_object_name": "COSMOS 2251 DEB",
        "meta_object_id": "1993-036AXL",
        "meta_epoch": "2025-12-14T15:06:03.977280",
        "meta_mean_motion": 14.62178283,
        "meta_eccentricity": 0.00106433,
        "meta_inclination": 74.0297,
        "meta_ra_of_asc_node": 115.562,
        "meta_arg_of_pericenter": 202.4764,
        "meta_mean_anomaly": 157.5938,
        "meta_ephemeris_type": 0,
        "meta_classification_type": "U",
        "meta_norad_cat_id": 36049,
        "meta_element_set_no": 999,
        "meta_rev_at_epoch": 85392,
        "meta_bstar": 0.0012373854,
        "meta_mean_motion_dot": 6.209e-05,
        "meta_mean_motion_ddot": 0,
        "tle_line1": "1 36049U 93036AXL 25348.62921270  .00006209  00000+0  12374-2 0  9999",
        "tle_line2": "2 36049  74.0297 115.5620 0010643 202.4764 157.5938 14.62178283853929"
      },
      "geometry": {
        "type": "Point",
        "coordinates": [
          -126.78247612105908,
          71.13433906995508
        ]
      }
    },
    {
      "type": "Feature",
      "properties": {
        "norad_id": 36050,
        "name": "COSMOS 2251 DEB",
        "group": "cosmos-2251-debris",
        "lat": 64.35521431735249,
        "lon": -32.19403351819501,
        "alt_km": 611.4651541271205,
        "timestamp": "2025-12-17T10:52:54.749415+00:00",
        "meta_object_name": "COSMOS 2251 DEB",
        "meta_object_id": "1993-036AXM",
        "meta_epoch": "2025-12-15T21:35:48.459552",
        "meta_mean_motion": 15.01080492,
        "meta_eccentricity": 0.00887608,
        "meta_inclination": 74.0305,
        "meta_ra_of_asc_node": 187.588,
        "meta_arg_of_pericenter": 266.4769,
        "meta_mean_anomaly": 92.6264,
        "meta_ephemeris_type": 0,
        "meta_classification_type": "U",
        "meta_norad_cat_id": 36050,
        "meta_element_set_no": 999,
        "meta_rev_at_epoch": 67082,
        "meta_bstar": 0.00042445305,
        "meta_mean_motion_dot": 5.866e-05,
        "meta_mean_motion_ddot": 0,
        "tle_line1": "1 36050U 93036AXM 25349.89986643  .00005866  00000+0  42445-3 0  9997",
        "tle_line2": "2 36050  74.0305 187.5880 0088760 266.4769  92.6264 15.01080492670823"
      },
      "geometry": {
        "type": "Point",
        "coordinates": [
          -32.19403351819501,
          64.35521431735249
        ]
      }
    },
    {
      "type": "Feature",
      "properties": {
        "norad_id": 36053,
        "name": "COSMOS 2251 DEB",
        "group": "cosmos-2251-debris",
        "lat": -5.907252119686705,
        "lon": 141.9258777672459,
        "alt_km": 708.3779444555794,
        "timestamp": "2025-12-17T10:52:54.749425+00:00",
        "meta_object_name": "COSMOS 2251 DEB",
        "meta_object_id": "1993-036AXQ",
        "meta_epoch": "2025-12-14T10:24:52.276896",
        "meta_mean_motion": 14.57209114,
        "meta_eccentricity": 0.00325891,
        "meta_inclination": 73.8698,
        "meta_ra_of_asc_node": 149.4338,
        "meta_arg_of_pericenter": 97.9449,
        "meta_mean_anomaly": 262.5415,
        "meta_ephemeris_type": 0,
        "meta_classification_type": "U",
        "meta_norad_cat_id": 36053,
        "meta_element_set_no": 999,
        "meta_rev_at_epoch": 87469,
        "meta_bstar": 0.0016910413,
        "meta_mean_motion_dot": 7.671e-05,
        "meta_mean_motion_ddot": 0,
        "tle_line1": "1 36053U 93036AXQ 25348.43393839  .00007671  00000+0  16910-2 0  9991",
        "tle_line2": "2 36053  73.8698 149.4338 0032589  97.9449 262.5415 14.57209114874694"
      },
      "geometry": {
        "type": "Point",
        "coordinates": [
          141.9258777672459,
          -5.907252119686705
        ]
      }
    },
    {
      "type": "Feature",
      "properties": {
        "norad_id": 36058,
        "name": "COSMOS 2251 DEB",
        "group": "cosmos-2251-debris",
        "lat": 32.60470776500787,
        "lon": -166.08295253518924,
        "alt_km": 664.3231910231261,
        "timestamp": "2025-12-17T10:52:54.749436+00:00",
        "meta_object_name": "COSMOS 2251 DEB",
        "meta_object_id": "1993-036AXV",
        "meta_epoch": "2025-12-16T09:31:35.831136",
        "meta_mean_motion": 14.58710964,
        "meta_eccentricity": 0.00443273,
        "meta_inclination": 74.0236,
        "meta_ra_of_asc_node": 26.4887,
        "meta_arg_of_pericenter": 159.9009,
        "meta_mean_anomaly": 200.3914,
        "meta_ephemeris_type": 0,
        "meta_classification_type": "U",
        "meta_norad_cat_id": 36058,
        "meta_element_set_no": 999,
        "meta_rev_at_epoch": 66164,
        "meta_bstar": 0.00034845634,
        "meta_mean_motion_dot": 1.618e-05,
        "meta_mean_motion_ddot": 0,
        "tle_line1": "1 36058U 93036AXV 25350.39694249  .00001618  00000+0  34846-3 0  9997",
        "tle_line2": "2 36058  74.0236  26.4887 0044327 159.9009 200.3914 14.58710964661641"
      },
      "geometry": {
        "type": "Point",
        "coordinates": [
          -166.08295253518924,
          32.60470776500787
        ]
      }
    },
    {
      "type": "Feature",
      "properties": {
        "norad_id": 36060,
        "name": "COSMOS 2251 DEB",
        "group": "cosmos-2251-debris",
        "lat": 51.41272017065589,
        "lon": 24.791424411493583,
        "alt_km": 757.2782611332068,
        "timestamp": "2025-12-17T10:52:54.749564+00:00",
        "meta_object_name": "COSMOS 2251 DEB",
        "meta_object_id": "1993-036AXX",
        "meta_epoch": "2025-12-16T09:19:34.584672",
        "meta_mean_motion": 14.42007942,
        "meta_eccentricity": 0.00154048,
        "meta_inclination": 74.0284,
        "meta_ra_of_asc_node": 227.7996,
        "meta_arg_of_pericenter": 324.3572,
        "meta_mean_anomaly": 35.6554,
        "meta_ephemeris_type": 0,
        "meta_classification_type": "U",
        "meta_norad_cat_id": 36060,
        "meta_element_set_no": 999,
        "meta_rev_at_epoch": 85062,
        "meta_bstar": 0.00029610749,
        "meta_mean_motion_dot": 9.46e-06,
        "meta_mean_motion_ddot": 0,
        "tle_line1": "1 36060U 93036AXX 25350.38859473  .00000946  00000+0  29611-3 0  9998",
        "tle_line2": "2 36060  74.0284 227.7996 0015404 324.3572  35.6554 14.42007942850626"
      },
      "geometry": {
        "type": "Point",
        "coordinates": [
          24.791424411493583,
          51.41272017065589
        ]
      }
    },
    {
      "type": "Feature",
      "properties": {
        "norad_id": 36061,
        "name": "COSMOS 2251 DEB",
        "group": "cosmos-2251-debris",
        "lat": 12.576566639713048,
        "lon": 167.4691050408029,
        "alt_km": 779.6625022020671,
        "timestamp": "2025-12-17T10:52:54.749576+00:00",
        "meta_object_name": "COSMOS 2251 DEB",
        "meta_object_id": "1993-036AXY",
        "meta_epoch": "2025-12-15T17:55:08.095872",
        "meta_mean_motion": 14.33713146,
        "meta_eccentricity": 0.00367991,
        "meta_inclination": 74.0242,
        "meta_ra_of_asc_node": 354.2562,
        "meta_arg_of_pericenter": 81.2237,
        "meta_mean_anomaly": 279.3079,
        "meta_ephemeris_type": 0,
        "meta_classification_type": "U",
        "meta_norad_cat_id": 36061,
        "meta_element_set_no": 999,
        "meta_rev_at_epoch": 65147,
        "meta_bstar": 0.00027590632,
        "meta_mean_motion_dot": 7.46e-06,
        "meta_mean_motion_ddot": 0,
        "tle_line1": "1 36061U 93036AXY 25349.74662148  .00000746  00000+0  27591-3 0  9991",
        "tle_line2": "2 36061  74.0242 354.2562 0036799  81.2237 279.3079 14.33713146651474"
      },
      "geometry": {
        "type": "Point",
        "coordinates": [
          167.4691050408029,
          12.576566639713048
        ]
      }
    }
  ]
}